<?xml version="1.0" encoding="UTF-8"?>
<kml xmlns="http://www.opengis.net/kml/2.2" xmlns:gx="http://www.google.com/kml/ext/2.2" xmlns:kml="http://www.opengis.net/kml/2.2" xmlns:atom="http://www.w3.org/2005/Atom">
<Document>
	<name>แนวเขตตำบลแม่ยาว อ้างอิงตาม ทน.ชร,ทต.บ้านดู่ 26-9-68.kml</name>
	<Schema name="เขตตำบลแม่ยาว" id="เขตตำบลแม่ยาว0">
		<SimpleField type="float" name="OBJECTID_1"></SimpleField>
		<SimpleField type="float" name="FID_1"></SimpleField>
		<SimpleField type="float" name="Id"></SimpleField>
		<SimpleField type="float" name="FID_2"></SimpleField>
		<SimpleField type="float" name="OBJECTID"></SimpleField>
		<SimpleField type="float" name="Shape_Leng"></SimpleField>
		<SimpleField type="float" name="FID_1_1"></SimpleField>
		<SimpleField type="float" name="AREA"></SimpleField>
		<SimpleField type="float" name="PERIMETER"></SimpleField>
		<SimpleField type="float" name="POLBNDRY_"></SimpleField>
		<SimpleField type="float" name="POLBNDRY_I"></SimpleField>
		<SimpleField type="string" name="TAMBON_IDN"></SimpleField>
		<SimpleField type="string" name="TAM_CODE"></SimpleField>
		<SimpleField type="string" name="TAM_NAM_T"></SimpleField>
		<SimpleField type="string" name="AMPHOE_IDN"></SimpleField>
		<SimpleField type="string" name="AMP_CODE"></SimpleField>
		<SimpleField type="string" name="AMPHOE_T"></SimpleField>
		<SimpleField type="string" name="AMPHOE_E"></SimpleField>
		<SimpleField type="string" name="PROV_CODE"></SimpleField>
		<SimpleField type="string" name="PROV_NAM_T"></SimpleField>
		<SimpleField type="string" name="PROV_NAM_E"></SimpleField>
		<SimpleField type="string" name="P_CODE"></SimpleField>
		<SimpleField type="float" name="ORIG_FID"></SimpleField>
		<SimpleField type="string" name="remark"></SimpleField>
		<SimpleField type="float" name="Distance"></SimpleField>
		<SimpleField type="float" name="rai"></SimpleField>
		<SimpleField type="float" name="Shape_Le_1"></SimpleField>
		<SimpleField type="float" name="Shape_Area"></SimpleField>
	</Schema>
	<Style id="style1010011">
		<LineStyle>
			<width>4</width>
		</LineStyle>
		<PolyStyle>
			<fill>0</fill>
		</PolyStyle>
	</Style>
	<Style id="style20000201">
		<LineStyle>
			<width>4</width>
		</LineStyle>
		<PolyStyle>
			<fill>0</fill>
		</PolyStyle>
	</Style>
	<StyleMap id="stylemap_id010010">
		<Pair>
			<key>normal</key>
			<styleUrl>#style1010011</styleUrl>
		</Pair>
		<Pair>
			<key>highlight</key>
			<styleUrl>#style20000201</styleUrl>
		</Pair>
	</StyleMap>
	<Placemark>
		<name>แนวเขตตำบลแม่ยาว อ้างอิงตาม ทน.ชร,ทต.บ้านดู่ 26-9-68</name>
		<styleUrl>#stylemap_id010010</styleUrl>
		<ExtendedData>
			<SchemaData schemaUrl="#เขตตำบลแม่ยาว0">
				<SimpleData name="OBJECTID_1">7612</SimpleData>
				<SimpleData name="FID_1">7580</SimpleData>
				<SimpleData name="Id">0</SimpleData>
				<SimpleData name="FID_2">7566</SimpleData>
				<SimpleData name="OBJECTID">7535</SimpleData>
				<SimpleData name="Shape_Leng">93442.29589280000</SimpleData>
				<SimpleData name="FID_1_1">7551</SimpleData>
				<SimpleData name="AREA">292349807.91399997473</SimpleData>
				<SimpleData name="PERIMETER">108116.92999999999</SimpleData>
				<SimpleData name="POLBNDRY_">50.00000000000</SimpleData>
				<SimpleData name="POLBNDRY_I">49.00000000000</SimpleData>
				<SimpleData name="TAMBON_IDN">570106</SimpleData>
				<SimpleData name="TAM_CODE">06</SimpleData>
				<SimpleData name="TAM_NAM_T">ต.แม่ยาว</SimpleData>
				<SimpleData name="AMPHOE_IDN">5701</SimpleData>
				<SimpleData name="AMP_CODE">01</SimpleData>
				<SimpleData name="AMPHOE_T">อ.เมืองเชียงราย</SimpleData>
				<SimpleData name="AMPHOE_E">Amphoe Muang Chiang Mai</SimpleData>
				<SimpleData name="PROV_CODE">57</SimpleData>
				<SimpleData name="PROV_NAM_T">จ.เชียงราย</SimpleData>
				<SimpleData name="PROV_NAM_E">Changwat Chiangrai</SimpleData>
				<SimpleData name="P_CODE">CHR</SimpleData>
				<SimpleData name="ORIG_FID">7566</SimpleData>
				<SimpleData name="Distance">0.00000000000</SimpleData>
				<SimpleData name="rai">147762.80071499999</SimpleData>
				<SimpleData name="Shape_Le_1">93442.15872140000</SimpleData>
				<SimpleData name="Shape_Area">236420481.14500001073</SimpleData>
			</SchemaData>
		</ExtendedData>
		<MultiGeometry>
			<Polygon>
				<outerBoundaryIs>
					<LinearRing>
						<coordinates>
							99.64660995144399,20.0854647849874,0 99.646329392216,20.0876528830649,0 99.6459366291537,20.0897287696779,0 99.64515116208841,20.091075280903,0 99.6433558435194,20.0924217734157,0 99.6421215676243,20.0930950133801,0 99.63645518032801,20.0932632236017,0 99.63308901147991,20.0932631607087,0 99.63224746170221,20.0935997777161,0 99.6316864199613,20.0942730300258,0 99.63078873969469,20.095956169876,0 99.6297227751751,20.0965172023868,0 99.628207990136,20.09696601605,0 99.62630049794849,20.0967976648441,0 99.6235514630815,20.0966292986366,0 99.62209278247362,20.0969659028456,0 99.6209707151932,20.0975269346484,0 99.62012916217439,20.0980318660138,0 99.6195681288429,20.0983123811963,0 99.6194559328253,20.0978074319559,0 99.61934374544542,20.0969658522132,0 99.6192876541643,20.0964047990045,0 99.61895105225319,20.0956754249231,0 99.6182217282995,20.0950582538845,0 99.61693141220668,20.0927018098585,0 99.616763127396,20.0915797025789,0 99.6163704235326,20.0908503270963,0 99.61631435275429,20.0892793798558,0 99.6158094495285,20.0882133704379,0 99.6151923355565,20.0873717811372,0 99.6146874259347,20.0866424043991,0 99.6149679736136,20.0850153569686,0 99.61390205568379,20.0832760752235,0 99.61278001968471,20.0823222652426,0 99.6118823796897,20.0820417237134,0 99.61148966747889,20.0817050844695,0 99.6112652689613,20.0811440286062,0 99.61092866512658,20.0804707594094,0 99.61053595221759,20.0801341205643,0 99.60941390362269,20.079797468582,0 99.6089089852038,20.0794608272372,0 99.60823724868209,20.0787334735853,0 99.60809435056969,20.078253381638,0 99.60753333140011,20.0778045295391,0 99.6065795845155,20.0778045117341,0 99.606018555528,20.0778045018362,0 99.60523311994318,20.0776361716138,0 99.60495261392199,20.0772434288271,0 99.6044477078309,20.0762896317679,0 99.6042233136609,20.0755041539398,0 99.6042233281099,20.0747747859489,0 99.60467216417248,20.0741015307266,0 99.60523321172478,20.0732038585026,0 99.60551374099839,20.0724183893233,0 99.60540154497811,20.0720256518646,0 99.60489662383981,20.0717451157003,0 99.60439170078729,20.0716890009162,0 99.6039989858986,20.0714645736632,0 99.603942895228,20.0708474147205,0 99.6036062832525,20.0706229872143,0 99.6032135705389,20.0702863488888,0 99.6033818893201,20.0697814042945,0 99.6038307186073,20.069444782344,0 99.60411123813449,20.0691642606076,0 99.60411125006981,20.0686032081808,0 99.6042234647484,20.0681543689806,0 99.6047844992741,20.067873853714,0 99.605065020098,20.067537226355,0 99.60512112961941,20.0672005963465,0 99.6052894433965,20.0669761789092,0 99.60506503846531,20.0666395435,0 99.6047003767124,20.066387063264,0 99.6046162316977,20.0659101666413,0 99.6044479375328,20.0651807962069,0 99.6041674312671,20.0648441588821,0 99.60371861942788,20.0643392033829,0 99.6035503197447,20.063890359134,0 99.60349422959462,20.0632732003289,0 99.60310151844369,20.0628804559553,0 99.6027649130038,20.062319397373,0 99.6028771249397,20.0619827689587,0 99.6031576504414,20.0614217213761,0 99.6032698685825,20.0608606713301,0 99.60321378051609,20.0601313019322,0 99.6032137917902,20.0595702497735,0 99.60321380161869,20.0591214087413,0 99.6026527833225,20.0586725555164,0 99.60186734240561,20.0587286464143,0 99.6008574907633,20.0587286280143,0 99.60035256761741,20.0586725132972,0 99.59956713427489,20.0583358677945,0 99.5987256059519,20.0577186948993,0 99.5985012098779,20.056933216898,0 99.59850122197621,20.0563721650673,0 99.5988378465147,20.0559794347387,0 99.59928667237649,20.055811127364,0 99.599791611057,20.0551939786746,0 99.60007213436461,20.0547451423383,0 99.6000721478084,20.0540718792212,0 99.5998477526002,20.0533425069254,0 99.5994550413198,20.0529497632024,0 99.5988940223918,20.0525009114729,0 99.59855740999819,20.0522203794019,0 99.5983891142244,20.0516593240036,0 99.5985013362763,20.0508738525679,0 99.59771590836812,20.0503127857196,0 99.59693047560491,20.0499761397901,0 99.5964255581957,20.0495833943505,0 99.59614506027189,20.0487979151789,0 99.5958645564701,20.0482929635238,0 99.5955279523629,20.047675799988,0 99.5953035726852,20.0461609541707,0 99.59485475731292,20.045824314446,0 99.5944059442387,20.0453754638604,0 99.59440596763871,20.0441972545928,0 99.59569634444109,20.0436362254566,0 99.59642569937471,20.0427385556368,0 99.59681844112731,20.0416725635166,0 99.59659404610531,20.0408870863899,0 99.59345230976339,20.0398210291527,0 99.59233026178239,20.0394282721415,0 99.59081547061092,20.0401576119603,0 99.5893567975921,20.0402136903086,0 99.58789811874162,20.0404941889686,0 99.58694437097591,20.0404380669087,0 99.58599063437262,20.0399331020364,0 99.5841953408182,20.0401013843105,0 99.5830171876854,20.03982083643,0 99.582063436101,20.039989134885,0 99.581165782677,20.0403818544908,0 99.5792582735688,20.0410550826202,0 99.577799599244,20.0411111608118,0 99.57701416635101,20.0408306208746,0 99.57650924403781,20.040606189755,0 99.5754432957072,20.0403817493999,0 99.574826178987,20.0397084748979,0 99.57493841433332,20.0382497411347,0 99.57482623698181,20.0369032144202,0 99.57437745198401,20.0351078375235,0 99.5743774661663,20.0343784704617,0 99.5752190309959,20.0333124857265,0 99.57555566768501,20.0323025981333,0 99.57533129195518,20.0306194375127,0 99.57465808086469,20.029497320927,0 99.5742653770516,20.0287118402209,0 99.5747142236483,20.0275897436903,0 99.5743776277432,20.0265237373711,0 99.574209335955,20.0257382615604,0 99.5746581769895,20.0248405863381,0 99.575499741998,20.0237184964994,0 99.57555585982281,20.0229891296765,0 99.57529378696471,20.0217688292827,0 99.575856023322,20.0212700575268,0 99.57718005015199,20.0209088128327,0 99.5775756084341,20.0207449578552,0 99.57819275557992,20.019959496186,0 99.57892210416401,20.0193423519092,0 99.5798197555596,20.0190618418831,0 99.58038079030989,20.0187252211918,0 99.58105404034852,20.017939760235,0 99.582849349984,20.016986004549,0 99.58374700260218,20.0165932846676,0 99.58509346813059,20.0167055197727,0 99.58739369557982,20.016144509896,0 99.5883474347302,20.0165372641658,0 99.58963777472989,20.0177716028865,0 99.59025487711209,20.0191742443549,0 99.5908719987312,20.0196230983286,0 99.59216237132432,20.0192303850524,0 99.5933966316617,20.0192865134547,0 99.5939576467981,20.019903680994,0 99.5942381396269,20.0209135802699,0 99.59406980745989,20.0220917872604,0 99.59440640299201,20.023101688324,0 99.59491131842481,20.0236066444678,0 99.59580895043578,20.0242238178663,0 99.59687489921991,20.0244482587672,0 99.5983335728383,20.0244482857247,0 99.5991190271676,20.0237189323152,0 99.59984838126879,20.0228773668936,0 99.60018502671311,20.0214747417464,0 99.60046556409129,20.0203526424505,0 99.6010266154606,20.0192305485825,0 99.60203648632699,20.0182767781702,0 99.6040961173354,20.018241208192,0 99.6065247374173,20.016986440958,0 99.6072712587183,20.0175867406353,0 99.60760621674112,20.0179877060379,0 99.60856288075401,20.020168937006,0 99.6087969769398,20.0204437386397,0 99.61194336766204,20.01995450173036,0 99.61317361335864,20.0192568943523,0 99.61314343287431,20.0182826302111,0 99.61370621120849,20.0170268998805,0 99.61376958023961,20.0164189918917,0 99.6134933758858,20.0146849872122,0 99.61350500942861,20.0139868956166,0 99.6134815822072,20.0123298349596,0 99.61476923858913,20.01140532273616,0 99.61683346055538,20.01075972614088,0 99.61867492278024,20.00999414868206,0 99.61954475900779,20.0091337340013,0 99.6195384543304,20.0075230431733,0 99.61902131054831,20.0062191110501,0 99.61896256096742,20.0055574100142,0 99.61933435669489,20.0037669306717,0 99.61989833426341,20.0026896432379,0 99.62091908501419,20.0013893652764,0 99.62121760710031,20.0011640141866,0 99.6219533598786,20.0000990490744,0 99.62475853373689,19.9985281542723,0 99.6257122991877,19.997686593599,0 99.625880654737,19.9953862822317,0 99.6264417115852,19.9940397671801,0 99.62694664850959,19.9934226186808,0 99.6281248195706,19.9928615880704,0 99.62864945363219,19.99166915778788,0 99.62932254011747,19.98875096985632,0 99.62947271404848,19.98758965642917,0 99.63025443867295,19.98674183013306,0 99.63188821732908,19.98663379697898,0 99.63430357637617,19.98692302518181,0 99.63620382140134,19.98570536306933,0 99.63802149690009,19.9852471644301,0 99.63962783434036,19.985877470849,0 99.6415896206619,19.9868024706284,0 99.64299218421012,19.9871391286977,0 99.64489968483231,19.9869147415423,0 99.6474243466555,19.985231632018,0 99.64930469179849,19.98329348916788,0 99.65098873943559,19.98151770165078,0 99.65196878098369,19.9800700333319,0 99.6526981598909,19.9780502583032,0 99.65315411268155,19.97665875745217,0 99.65312009221211,19.97674491435524,0 99.65398240739664,19.97488736656657,0 99.65498740530802,19.97438301220481,0 99.65606440708009,19.9742351641731,0 99.6574669807314,19.9741229796302,0 99.6599355073201,19.9739547089249,0 99.66072095812559,19.9734497763633,0 99.66201134067758,19.9725521165348,0 99.6628528882153,19.9723277118059,0 99.66388800755381,19.9721121573697,0 99.66546265673229,19.97143686825428,0 99.66668284101918,19.96998345730906,0 99.6676778024556,19.9688492753179,0 99.6693503625855,19.96826465472481,0 99.67110009979071,19.9676150235312,0 99.67216606763479,19.9669417793042,0 99.6726149143922,19.9657635779467,0 99.6732881572957,19.9653147484663,0 99.6766543439969,19.9644732321873,0 99.6780008199962,19.9640805200998,0 99.67929118483261,19.9640805431463,0 99.68058155166,19.9639683575128,0 99.6814231023323,19.9635756360273,0 99.6817036343235,19.9627340626197,0 99.6819280640013,19.9618363832891,0 99.68153536541089,19.9608264812916,0 99.68232080983762,19.9605459700096,0 99.68327456111442,19.960377670966,0 99.68467714138239,19.959928854882,0 99.6864724357406,19.9597044677258,0 99.6889409659502,19.9594800921523,0 99.69225102819439,19.9596484682879,0 99.6938218971339,19.9601534453376,0 99.6951996082594,19.95958206550957,0 99.69649640906286,19.95884671990941,0 99.69845016064914,19.95836067803431,0 99.69903949228632,19.9585825945257,0 99.6998810244168,19.959031451481,0 99.70027373119188,19.9597047222468,0 99.70111525611119,19.9605463164235,0 99.70167627600131,19.9609390630314,0 99.70296663729201,19.9611074027243,0 99.7048741435672,19.9606024908219,0 99.70678165396438,19.9599292631133,0 99.70849937095424,19.95920451727207,0 99.70995808494311,19.95794627025502,0 99.71110162494821,19.9573485010893,0 99.713009101273,19.9583023261371,0 99.71366427793467,19.95868772848235,0 99.71450485904586,19.95868831272383,0 99.7156459381016,19.9580779536467,0 99.7167680110482,19.9572925013583,0 99.7179354272907,19.95598010736771,0 99.71956385828231,19.954562097692,0 99.72256023231739,19.95236364861631,0 99.7236255246499,19.95191992773744,0 99.72448137377219,19.95092460247941,0 99.72609063049647,19.94948779822077,0 99.72771360530542,19.94883901444726,0 99.72915397579958,19.94800099895693,0 99.73097230227661,19.94719561042564,0 99.7350800727975,19.94541225581852,0 99.7368312433308,19.9457351910411,0 99.73866012731091,19.94666748661912,0 99.74032659588235,19.94744416094023,0 99.74121391090206,19.94762632455638,0 99.74255597897921,19.94703204575706,0 99.74374445384005,19.94620384291309,0 99.74461605238643,19.94513099599004,0 99.744810351025,19.9438402285112,0 99.74521023371996,19.94257928987247,0 99.74580779234449,19.9410474521887,0 99.74671953870788,19.93984908800843,0 99.74857273396417,19.93841966988013,0 99.7510392848489,19.93717986506671,0 99.7524143618423,19.93643969349526,0 99.75404951283794,19.93586388697065,0 99.75473454405605,19.93539617929595,0 99.75517262670608,19.93456510875282,0 99.7555585963877,19.933478234554,0 99.7556792609291,19.93238649408624,0 99.75598172946329,19.93092973421349,0 99.75709644483651,19.9306584284099,0 99.75832694227618,19.9312224585226,0 99.75973223136371,19.9323708229642,0 99.76107787662798,19.9335307253013,0 99.76228166689862,19.9351181828024,0 99.7627676529066,19.93584415330528,0 99.76420233526576,19.93721081185211,0 99.76482039448608,19.93734017133763,0 99.76546168981648,19.93725901368139,0 99.7671890978214,19.9367168339703,0 99.76895634402339,19.9363697152649,0 99.76971374709979,19.9356438675528,0 99.76946129261812,19.9352335932391,0 99.76895641666029,19.9345969564037,0 99.76873376026292,19.9330120812889,0 99.76920591174118,19.9317314278602,0 99.7704941518018,19.9308922662874,0 99.77169240061188,19.9307086046777,0 99.77283807050721,19.9309731629751,0 99.77391101971371,19.9318252816435,0 99.77564667934381,19.9328352084838,0 99.77748322498668,19.9338753691946,0 99.77979919617502,19.9338878120529,0 99.78189512852931,19.9329931195383,0 99.7824947576818,19.9315414076978,0 99.78186364614481,19.9293322517077,0 99.7811062969796,19.9274702445183,0 99.78085388209422,19.9251664187437,0 99.78034900314012,19.9228941464757,0 99.78000190885952,19.9208427914211,0 99.7793227138957,19.9181874108396,0 99.7794856071089,19.9163342937051,0 99.78017425402761,19.9149058274918,0 99.7815340727762,19.9139691376042,0 99.7825254155368,19.9137524294498,0 99.78360204003438,19.9135150097329,0 99.7855932901266,19.9138518565873,0 99.78710255493949,19.9144995237079,0 99.78852263776609,19.9154778854615,0 99.7900400154864,19.9169789801673,0 99.7902794780814,19.9170974132056,0 99.79376060613572,19.91739543912587,0 99.79624468555181,19.91819783971205,0 99.79744441840231,19.91923316787152,0 99.79845299571306,19.91960796749801,0 99.7982774586481,19.9203724244691,0 99.79849139061756,19.92108996627082,0 99.79780730469317,19.92120119505209,0 99.79832825039907,19.92257942014946,0 99.79798566765797,19.92277768234432,0 99.79827258572679,19.92330922454276,0 99.79686981909227,19.92384713388865,0 99.79729050582063,19.9250019161813,0 99.79767827023245,19.92515721464026,0 99.79814806198627,19.92542673646943,0 99.79834629304489,19.9257713477596,0 99.79862819763119,19.92577580939752,0 99.79880434356288,19.92602982315407,0 99.80038628491523,19.92578052808967,0 99.80181117361326,19.92555103997558,0 99.80547701182869,19.93053393721521,0 99.80643790620111,19.9303575218152,0 99.80669490173868,19.93052418749676,0 99.80736845060696,19.93065201631432,0 99.80740186271257,19.93122571796623,0 99.80709452781315,19.93198665982815,0 99.80735152310812,19.93218400620299,0 99.80750449328545,19.93328516733599,0 99.80800373635121,19.93353517543237,0 99.80848750817994,19.93406124589836,0 99.80884199930411,19.9342751326902,0 99.80946749671526,19.93441402023631,0 99.80948961475386,19.93529957213856,0 99.80879272310874,19.93548463853746,0 99.80886663641114,19.9359286925725,0 99.80939240610776,19.93589018091878,0 99.81025638339659,19.93708270561797,0 99.81030105980469,19.93710629940712,0 99.80857687531322,19.93872591160045,0 99.80967044832845,19.93954940845902,0 99.80932588102779,19.93997139315165,0 99.80925670057911,19.9400895636207,0 99.80909952477525,19.94016339276519,0 99.80905863027911,19.94028747947036,0 99.80902396493204,19.94061839575521,0 99.80868874068703,19.94102649688883,0 99.80859443938131,19.94105306598781,0 99.80850956406972,19.94109145605664,0 99.80843725388772,19.94115644132326,0 99.8088424737507,19.94218667102487,0 99.80855284242782,19.94231977470967,0 99.80835515433728,19.94244623267623,0 99.80785528459988,19.94283021747779,0 99.80769578653704,19.94300539995558,0 99.80739710766001,19.9432801104899,0 99.80717017722606,19.94350537383367,0 99.80683943259213,19.94385502138275,0 99.80630804548126,19.9445019606956,0 99.8062908559768,19.94452945137792,0 99.80661304206581,19.94464706992493,0 99.80691921732007,19.9450170137997,0 99.8063702199027,19.94541855785332,0 99.80645740460564,19.94557966127293,0 99.80628510114259,19.94569094933672,0 99.80639676380738,19.9458440598409,0 99.80625811644427,19.94592254067073,0 99.80636304197694,19.9461031559646,0 99.80641683399945,19.94625119094282,0 99.806209543958,19.94633843229949,0 99.80603052576197,19.94639405241013,0 99.80616946954481,19.94682512509835,0 99.80598105094037,19.94680989477244,0 99.80597699297185,19.94687947633117,0 99.80583836491897,19.94688829640177,0 99.80582895528518,19.94684907466274,0 99.80566744653281,19.94686041899744,0 99.80558405467032,19.94668201275622,0 99.80555578896794,19.94668959621294,0 99.80549116053497,19.94677813907261,0 99.80546958100804,19.94693121539155,0 99.80547125712265,19.94711695039623,0 99.80544295008626,19.9472636991388,0 99.80540524092578,19.9473464594637,0 99.80548059919408,19.94738443331134,0 99.80545492715288,19.94772307413287,0 99.80526247139163,19.94770151649121,0 99.8051522500013,19.94796668909101,0 99.80497050666906,19.94812731401989,0 99.8048000118269,19.94836998767897,0 99.80491168602063,19.94848640997545,0 99.80494397304345,19.94853449376791,0 99.80470841226202,19.9487543232706,0 99.80484833670305,19.94891629811083,0 99.80442519149669,19.94925981824082,0 99.80446690593891,19.94928766241459,0 99.80460489284513,19.94932322110309,0 99.80476297292287,19.94939021745981,0 99.80508790329317,19.9495220102355,0 99.80513175806267,19.94954288154862,0 99.80518810553272,19.94957884458113,0 99.80521224665462,19.94962047516701,0 99.80522222903869,19.94989481956671,0 99.80522622819342,19.94998374537172,0 99.80524634674545,19.95001544597325,0 99.80529821167276,19.95005216148511,0 99.80528687237394,19.9513025112533,0 99.80462121881267,19.95187493520255,0 99.80447213495309,19.9516006539982,0 99.80353926211959,19.9522470227029,0 99.80338561357866,19.95255215163684,0 99.80340746257659,19.95283464690118,0 99.80292539622192,19.95274594566652,0 99.80273454754378,19.95275207875317,0 99.80250857628288,19.95283449457526,0 99.80229794601325,19.95296021582845,0 99.80214213711898,19.9531457496582,0 99.8023614688715,19.95325509513241,0 99.80254353394528,19.95328195114848,0 99.8025500285855,19.95355702684609,0 99.80314012081618,19.95415381572359,0 99.80161903196451,19.95547406034713,0 99.80180571271265,19.95573325753294,0 99.80182779146099,19.95621811484283,0 99.80218162412245,19.95615099028669,0 99.80276416956293,19.95609263617152,0 99.80352902932965,19.95603432961635,0 99.8034442628515,19.95693582724252,0 99.80317729793501,19.95744568335213,0 99.80370640725009,19.95763809605531,0 99.80399553401713,19.95824148537369,0 99.8038354631001,19.95837513089137,0 99.80377417444906,19.95842933485058,0 99.80376239850868,19.95847513275346,0 99.80377582901666,19.95851304073275,0 99.80388330110709,19.95872470250784,0 99.80395332686213,19.95876890752441,0 99.80426245298746,19.95891113188559,0 99.80469088197543,19.95904233218246,0 99.80483075167261,19.95913226285173,0 99.80522048694911,19.95942612423706,0 99.80523990339715,19.95945752563507,0 99.80523606199895,19.9594923336867,0 99.80514148210408,19.95976284862082,0 99.80514274660331,19.95980485990605,0 99.80515806297619,19.95983127082421,0 99.80519315501947,19.95984791207436,0 99.80561045233809,19.95997341722351,0 99.80597282951339,19.96005753315736,0 99.80595082503019,19.96014951376524,0 99.80591614296506,19.96027141605736,0 99.80592835478274,19.96082090311178,0 99.80632237862469,19.9608179163306,0 99.80632852440381,19.96095746928055,0 99.80684190866036,19.96122507367667,0 99.80693473055378,19.96112915562888,0 99.80744910779717,19.96137079253715,0 99.80734386398895,19.96164114692273,0 99.80789244468565,19.96197028873216,0 99.80820482447737,19.96207502935668,0 99.80815836711676,19.96229015956708,0 99.80880005470087,19.96240315575587,0 99.80883400772866,19.96266482274668,0 99.80901957516133,19.96274918000364,0 99.80898111917317,19.96296601578232,0 99.80946662638344,19.96341676730919,0 99.80967576244672,19.96323609691285,0 99.80979641076269,19.9631837938359,0 99.80990157826588,19.96318672611887,0 99.80999127594433,19.96320419130072,0 99.81019849445751,19.96329727439447,0 99.81053870043841,19.96346597846904,0 99.81080548418619,19.96373382386258,0 99.81083182944437,19.96403185390072,0 99.81073486723922,19.96432570264004,0 99.81028254106178,19.96506356466524,0 99.81005935594192,19.96526771382489,0 99.8097040387204,19.96551874352314,0 99.80798564631702,19.96601873125557,0 99.80772606887416,19.96614282376574,0 99.80748821034673,19.9663083332423,0 99.80665376459363,19.96723810733962,0 99.80548717853704,19.96959513153522,0 99.80548418127688,19.96984515032632,0 99.80520432722822,19.96989870843061,0 99.80503382666156,19.96997529407002,0 99.80479410620323,19.97018654481887,0 99.80473384371231,19.97026739212704,0 99.80463248787187,19.97045778009947,0 99.80342522280165,19.97158344743564,0 99.80340045919033,19.97175656528118,0 99.80337345958458,19.97189638146053,0 99.80332174788796,19.97204204534476,0 99.80327004117997,19.97217081914366,0 99.80322687135734,19.9722279371577,0 99.80314209352498,19.97231261790139,0 99.80273403925936,19.9721846554249,0 99.8024479660647,19.97237143392595,0 99.80191733850926,19.97258668880889,0 99.80070233475884,19.97292077059311,0 99.80032268324609,19.9725253405021,0 99.80018570560402,19.97236695464822,0 99.79998088640028,19.9722243525316,0 99.79956312509768,19.97202788104801,0 99.79942325788127,19.97220011394175,0 99.79927581098269,19.97227474708815,0 99.79846947457881,19.97256777557565,0 99.79816615977114,19.97272180723916,0 99.79804473812879,19.97305957538499,0 99.79813078807189,19.97378600479314,0 99.79820028848036,19.97419023188664,0 99.7983192184217,19.97457033939604,0 99.79864708176424,19.97494728777932,0 99.79875484674707,19.97513311234867,0 99.79894799111553,19.97527462586763,0 99.79841667980673,19.97572517588874,0 99.7981572015252,19.97571876374918,0 99.79788764712916,19.9756701228098,0 99.79771693827314,19.97561306650377,0 99.79762710146044,19.97555392339405,0 99.79753500798267,19.97552433740226,0 99.79745188243962,19.97554542478767,0 99.79739792968999,19.97565519488273,0 99.7972923045472,19.97577550582484,0 99.79729677819273,19.9758304006511,0 99.79733943705486,19.97589797477603,0 99.79733491815105,19.97597186851492,0 99.79731242747764,19.97604954399721,0 99.79733485210213,19.97616356021297,0 99.79734380068732,19.97627247909826,0 99.79734376165609,19.9763843770383,0 99.79737964956914,19.9765427342467,0 99.79745824524655,19.97662932080393,0 99.79745149032728,19.97667365582267,0 99.79736834023286,19.97676588281659,0 99.79736832475493,19.97681021974921,0 99.79741547167822,19.97689257414716,0 99.79741544730368,19.9769622465319,0 99.7973848719563,19.97701136658902,0 99.79729273172181,19.97711479078372,0 99.7971781252127,19.97722243067507,0 99.79703208415172,19.9772836128882,0 99.79694929809337,19.97736926253048,0 99.79691106304671,19.97749803870339,0 99.7968414004429,19.97756135564677,0 99.79677044135646,19.97759446414359,0 99.79666482232071,19.97769577258396,0 99.7964940539708,19.97780128338995,0 99.79647380514064,19.97788783955694,0 99.7965321713389,19.97800608935424,0 99.79661523528998,19.97816235001687,0 99.79664440842197,19.97825223570182,0 99.79662416193788,19.97833245792911,0 99.79662860714865,19.97846758108715,0 99.79660834632219,19.97858791783577,0 99.79659259780337,19.97865336274572,0 99.79659032341158,19.97873440073616,0 99.79662396991132,19.97887825317624,0 99.79659921622014,19.97899858827043,0 99.79661040310349,19.97912737971228,0 99.79660806362672,19.97939191208602,0 99.7965181276092,19.97960581796842,0 99.79641215185895,19.97977665315508,0 99.79636491889728,19.97993709535318,0 99.79636472500442,19.98048521878744,0 99.79629722611239,19.98077899518645,0 99.79612626707926,19.98140810347702,0 99.79598890302725,19.98161903043822,0 99.7958096189587,19.98173182494557,0 99.7956568031415,19.98187956591957,0 99.79549498533981,19.98206952972779,0 99.79543358831303,19.98217964304525,0 99.79536391198357,19.98227462828808,0 99.79522235273892,19.98235270050514,0 99.79492579562277,19.98239272031533,0 99.79472750973738,19.98238384840149,0 99.79445565843088,19.98244287643337,0 99.79429613125797,19.98250616316524,0 99.7941680456365,19.98257728306598,0 99.79395007438293,19.98273344659811,0 99.79380400303452,19.98285796447624,0 99.79374322349275,19.98292140914226,0 99.79370500579371,19.9829931800673,0 99.79363689245055,19.98318992739274,0 99.79357043038897,19.98352382751415,0 99.79350670195684,19.98371698153285,0 99.79335850436976,19.9839151787697,0 99.79323395940757,19.98403191946054,0 99.79310442034235,19.98408901440602,0 99.7928456821418,19.98415927237342,0 99.7924781339169,19.98422357011212,0 99.79230682769753,19.98429791965963,0 99.79213172331002,19.98442060613108,0 99.79196238952159,19.98457736669476,0 99.79180138464444,19.98474983447059,0 99.79163549812075,19.98499622485163,0 99.79151618613035,19.98521387261823,0 99.79145972079938,19.98528051494675,0 99.79137646241311,19.98535367385849,0 99.79106340361463,19.98569572095496,0 99.79094416965765,19.98584433621883,0 99.79093691656703,19.98592154289245,0 99.79095290251205,19.98598534957269,0 99.79106184803996,19.98616623222646,0 99.79109098755124,19.98624623945954,0 99.79111460020975,19.98647479784358,0 99.79114778302549,19.98651607408929,0 99.79117522847385,19.98682645559505,0 99.79114261043226,19.9870057168276,0 99.79114647805544,19.98709212052758,0 99.79116870059097,19.9872672776567,0 99.79120282789435,19.98743546838504,0 99.79118680776054,19.98754971751408,0 99.79097512709725,19.98791916752661,0 99.79077521199066,19.98821735548721,0 99.79037589300947,19.98859896320233,0 99.79029322108552,19.98870602179743,0 99.79019787895885,19.98883507682548,0 99.79006064765204,19.98894927952885,0 99.78990326893982,19.9890198806353,0 99.78975611294803,19.98905897566343,0 99.78963843677076,19.98909236439696,0 99.78949688963282,19.98918285775413,0 99.78934396877061,19.98934357236037,0 99.78894344521976,19.98992202523445,0 99.78879531801678,19.99021993613694,0 99.78870123896938,19.99038873777692,0 99.78861508659902,19.99045791635666,0 99.78831634696024,19.99048486709176,0 99.78808203287815,19.99048536031468,0 99.7877790364219,19.99057950135745,0 99.78755848503506,19.9907576853529,0 99.78732624064011,19.9909835878087,0 99.78716148164933,19.99103640547959,0 99.7867503045106,19.99102528347908,0 99.78660189320168,19.99108667198703,0 99.78655408307014,19.99120677765699,0 99.78653135733073,19.99131866836512,0 99.78653491906388,19.99145768866707,0 99.78650352293782,19.99167408107767,0 99.78642560306503,19.99180946404167,0 99.7863815190745,19.99197743859969,0 99.78644155206644,19.99207647487965,0 99.78653668542147,19.99217673366446,0 99.78652769853615,19.99232439581494,0 99.78655383609323,19.99245637597615,0 99.78663131184324,19.99263129340929,0 99.78674354642783,19.99304630443703,0 99.78685822309475,19.99321943939981,0 99.78693193921232,19.99339389106277,0 99.78696037012499,19.99354781368451,0 99.78696881234244,19.99378108786988,0 99.78681026000517,19.9941947171521,0 99.78659859550928,19.99464158081823,0 99.78619145731956,19.99513745252584,0 99.78583472996051,19.99584962334281,0 99.78571945933547,19.9964041993261,0 99.78566601500147,19.99709003519822,0 99.78616827174334,19.99846149234355,0 99.78622831775949,19.99926790183682,0 99.78749870162257,20.00349134061427,0 99.78788171060461,20.00611782744483,0 99.78788267783335,20.00795957775129,0 99.78758779279596,20.01004965748141,0 99.78733184861171,20.01267508839749,0 99.78711373025502,20.01396970111419,0 99.78629422932762,20.01608164834872,0 99.78536845611066,20.01829608092577,0 99.78455959096644,20.02062720183487,0 99.78425147253415,20.02221183426252,0 99.78421345313043,20.02327649106869,0 99.78422709768908,20.02390492736787,0 99.78438360406062,20.02451776171083,0 99.78482104562111,20.02521545270093,0 99.78567390921343,20.02629392313699,0 99.78613440694933,20.02660082359536,0 99.78812762365338,20.02734557555753,0 99.79217593917679,20.02796324471991,0 99.79374955389132,20.02821868738269,0 99.7939967634511,20.02831405570819,0 99.79431504514203,20.02851743998364,0 99.79698164787126,20.03224541955514,0 99.79724097110154,20.03291401048815,0 99.79766529597127,20.03499885713056,0 99.79804458603071,20.03675965453413,0 99.7983559278633,20.03746090354812,0 99.79866780383739,20.03777096683125,0 99.79952956789786,20.03837861206636,0 99.79972653369749,20.0384529011111,0 99.7932166782583,20.0513181191885,0 99.7909160495276,20.0571235145083,0 99.7896246294839,20.058125806547,0 99.7890275183579,20.058499512138,0 99.78820468252211,20.0582002691142,0 99.7873070308431,20.0584994807056,0 99.7840156398558,20.0597711378391,0 99.78169670315719,20.0607435859286,0 99.7799762156248,20.060743553414,0 99.77885415481821,20.0609679534601,0 99.77735807032282,20.0614167676653,0 99.7763108175905,20.0614167483658,0 99.7733186726867,20.0611174649048,0 99.77219661179861,20.0613418645828,0 99.7702516977497,20.0621647053401,0 99.7692792187152,20.0635860198583,0 99.76845637390429,20.0637356193547,0 99.7657634409002,20.0635859543893,0 99.7647909832307,20.0640347780056,0 99.76359411457598,20.064483598373,0 99.76254686087661,20.0644835785025,0 99.7600783523812,20.0637354635756,0 99.75873190695449,20.0626881403135,0 99.75798389229928,20.0615660223647,0 99.7573854931629,20.0600698707225,0 99.7561138594142,20.0586485141247,0 99.75484222213581,20.057376772373,0 99.7527477391401,20.0562546287512,0 99.74661384490561,20.0555812520354,0 99.7424248960838,20.0525888955219,0 99.73651546600649,20.0493720843497,0 99.73644066999179,20.048998048902,0 99.7347951520357,20.0410684779675,0 99.73442114185748,20.0406944357558,0 99.72649209220511,20.0335128184222,0 99.72484645228499,20.0314181922582,0 99.72379920524781,20.0311189448873,0 99.7182636776903,20.0335126658964,0 99.71504710668971,20.0339614487772,0 99.71422425455209,20.0344850810979,0 99.7131769941323,20.0348590979421,0 99.7116061160493,20.0347842606243,0 99.7085391300175,20.0363551510932,0 99.7062202119298,20.0364299145873,0 99.70450959073179,20.0372018902966,0 99.70173752629429,20.0382238401378,0 99.6974681220847,20.0388235770239,0 99.6971689308611,20.0377014662841,0 99.6964209347081,20.0356816638005,0 99.69544850433849,20.0347839626654,0 99.6938028404106,20.0338862481212,0 99.6919327574995,20.0333625637763,0 99.6905114936996,20.032988503899,0 99.6870705538154,20.0314174927893,0 99.68415321897071,20.0308189837836,0 99.6851254731416,20.0402446812076,0 99.6857237705353,20.0466032847236,0 99.6862473763686,20.047575785465,0 99.68632215339491,20.0489223129784,0 99.68669615412509,20.0497451955236,0 99.6867709010002,20.0525130560544,0 99.68707008102309,20.0541588150196,0 99.6867708263952,20.0561037906583,0 99.6817589665945,20.0564777327993,0 99.68131008107019,20.0595448101652,0 99.68168409029791,20.059993658769,0 99.6824320813988,20.06223788265,0 99.68220765908229,20.0627615271469,0 99.68183361358119,20.0640332390667,0 99.6812351357832,20.066352244402,0 99.6807769121538,20.0688021639446,0 99.67971092383979,20.0704853012204,0 99.6787010513614,20.0714951770976,0 99.677747287893,20.0722806322947,0 99.67668133225139,20.0723367174123,0 99.67606418980841,20.0728977586112,0 99.67477381496622,20.07340268247,0 99.673539541521,20.0739637117438,0 99.67224916847159,20.0743564239702,0 99.67090267754639,20.0754785037244,0 99.66809751736508,20.0764322410703,0 99.6665266389542,20.0763761059674,0 99.6646752565529,20.0758711255637,0 99.6636654079649,20.075815001831,0 99.6608602497101,20.0766565283864,0 99.65917716035992,20.0768248125554,0 99.65788679120701,20.0770492086941,0 99.65614758279692,20.0781151764269,0 99.6563719704959,20.0792372852344,0 99.65597923997402,20.079742225031,0 99.65530599814591,20.0801349494524,0 99.654857164102,20.0806959935296,0 99.6542400205248,20.0813131393253,0 99.65334237851049,20.0811448069209,0 99.65272526037749,20.0805276386085,0 99.65177152764259,20.0797982524693,0 99.65054694565249,20.079510907285,0 99.6497244115623,20.0799039653702,0 99.64660995144399,20.0854647849874,0 
						</coordinates>
					</LinearRing>
				</outerBoundaryIs>
			</Polygon>
		</MultiGeometry>
		<atom:link rel="app" href="https://www.google.com/earth/about/versions/#earth-pro" title="Google Earth Pro 7.3.6.10201"></atom:link>
	</Placemark>
</Document>
</kml>
